NORAD_CAT_ID,OBJECT_NAME,OBJECT_TYPE,EPOCH,MEAN_MOTION,ECCENTRICITY,INCLINATION,RA_OF_ASC_NODE,ARG_OF_PERICENTER,MEAN_ANOMALY,BSTAR,MEAN_MOTION_DOT,MEAN_MOTION_DDOT,TLE_LINE0,TLE_LINE1,TLE_LINE2,SEMIMAJOR_AXIS,PERIOD,APOGEE,PERIGEE,DECAYED
49737.0,STARLINK-3225,PAYLOAD,2023-09-15 04:13:32,15.08839676,0.0001678,53.2167,258.6184,109.3361,250.7813,5.4734e-05,5.83e-06,0.0,0 STARLINK-3225,1 49737U 21115P   23258.17606772  .00000583  00000-0  54734-4 0  9999,2 49737  53.2167 258.6184 0001678 109.3361 250.7813 15.08839676 99798,6917.881,95.438,540.907,538.586,0.0
49737.0,STARLINK-3225,PAYLOAD,2023-09-15 10:35:04,15.08842577,0.0002047,53.2167,257.4285,123.1334,236.9855,9.7794e-05,1.269e-05,0.0,0 STARLINK-3225,1 49737U 21115P   23258.44102539  .00001269  00000-0  97794-4 0  9996,2 49737  53.2167 257.4285 0002047 123.1334 236.9855 15.08842577 98720,6917.873,95.437,541.154,538.321,0.0
49737.0,STARLINK-3225,PAYLOAD,2023-09-16 08:50:28,15.08839175,0.0001565,53.2163,253.2641,103.3804,256.7363,0.00017271,2.462e-05,0.0,0 STARLINK-3225,1 49737U 21115P   23259.36839119  .00002462  00000-0  17271-3 0  9996,2 49737  53.2163 253.2641 0001565 103.3804 256.7363 15.08839175 99974,6917.883,95.438,540.831,538.665,0.0
49737.0,STARLINK-3225,PAYLOAD,2023-09-17 08:41:15,15.08847999,0.0001596,53.2167,248.8032,95.2881,264.8294,0.00012223,1.658e-05,0.0,0 STARLINK-3225,1 49737U 21115P   23260.36198782  .00001658  00000-0  12223-3 0  9990,2 49737  53.2167 248.8032 0001596  95.2881 264.8294 15.08847999 99011,6917.856,95.437,540.825,538.617,0.0
49737.0,STARLINK-3225,PAYLOAD,2023-09-17 16:38:11,15.08845255,0.0001598,53.217,247.3165,94.8044,265.3131,0.00010894,1.446e-05,0.0,0 STARLINK-3225,1 49737U 21115P   23260.69318903  .00001446  00000-0  10894-3 0  9992,2 49737  53.2170 247.3165 0001598  94.8044 265.3131 15.08845255100173,6917.864,95.437,540.835,538.624,0.0
49737.0,STARLINK-3225,PAYLOAD,2023-09-18 08:32:02,15.08844412,0.0001474,53.216,244.3431,98.4434,261.6725,7.6694e-05,9.33e-06,0.0,0 STARLINK-3225,1 49737U 21115P   23261.35558943  .00000933  00000-0  76694-4 0  9997,2 49737  53.2160 244.3431 0001474  98.4434 261.6725 15.08844412 99169,6917.867,95.437,540.752,538.712,0.0
49737.0,STARLINK-3225,PAYLOAD,2023-09-18 16:28:58,15.08842622,0.0001455,53.2159,242.8561,98.6642,261.4515,5.415e-05,5.74e-06,0.0,0 STARLINK-3225,1 49737U 21115P   23261.68679046  .00000574  00000-0  54150-4 0  9995,2 49737  53.2159 242.8561 0001455  98.6642 261.4515 15.08842622100323,6917.872,95.437,540.744,538.731,0.0
49737.0,STARLINK-3225,PAYLOAD,2023-09-19 08:22:49,15.08852322,0.0001458,53.2149,239.8824,99.197,260.9187,0.00019309,2.787e-05,0.0,0 STARLINK-3225,1 49737U 21115P   23262.34918388  .00002787  00000-0  19309-3 0  9998,2 49737  53.2149 239.8824 0001458  99.1970 260.9187 15.08852322100421,6917.843,95.437,540.716,538.699,0.0
49737.0,STARLINK-3225,PAYLOAD,2023-09-20 08:13:36,15.08861545,0.0001458,53.2151,235.4216,107.9709,252.1442,0.00043194,6.597e-05,0.0,0 STARLINK-3225,1 49737U 21115P   23263.34277947  .00006597  00000-0  43194-3 0  9990,2 49737  53.2151 235.4216 0001458 107.9709 252.1442 15.08861545 99464,6917.815,95.436,540.688,538.671,0.0
49737.0,STARLINK-3225,PAYLOAD,2023-09-20 22:32:05,15.08835678,0.0001952,53.216,232.7431,112.0478,248.0722,-0.00012521,-2.28e-05,0.0,0 STARLINK-3225,1 49737U 21115P   23263.93894852 -.00002280  00000-0 -12521-3 0  9992,2 49737  53.2160 232.7431 0001952 112.0478 248.0722 15.08835678 99555,6917.894,95.438,541.109,538.408,0.0
49737.0,STARLINK-3225,PAYLOAD,2023-09-21 01:42:51,15.08832779,0.0001665,53.2161,232.1485,111.5054,248.6116,-0.00012676,-2.304e-05,0.0,0 STARLINK-3225,1 49737U 21115P   23264.07143137 -.00002304  00000-0 -12676-3 0  9999,2 49737  53.2161 232.1485 0001665 111.5054 248.6116 15.08832779100683,6917.902,95.438,540.919,538.616,0.0
49737.0,STARLINK-3225,PAYLOAD,2023-09-21 08:04:24,15.08833213,0.0001351,53.2157,230.963,88.937,271.1777,-0.0001496,-2.668e-05,0.0,0 STARLINK-3225,1 49737U 21115P   23264.33639254 -.00002668  00000-0 -14960-3 0  9999,2 49737  53.2157 230.9630 0001351  88.9370 271.1777 15.08833213 99614,6917.901,95.438,540.701,538.832,0.0
49737.0,STARLINK-3225,PAYLOAD,2023-09-22 04:44:24,15.08847182,0.0001367,53.2159,227.0984,98.6785,261.4362,8.4552e-05,1.058e-05,0.0,0 STARLINK-3225,1 49737U 21115P   23265.19750892  .00001058  00000-0  84552-4 0  9991,2 49737  53.2159 227.0984 0001367  98.6785 261.4362 15.08847182100851,6917.858,95.437,540.669,538.778,0.0
49737.0,STARLINK-3225,PAYLOAD,2023-09-22 22:13:40,15.08834252,0.0001368,53.216,223.8282,94.6197,265.4951,0.00017066,2.429e-05,0.0,0 STARLINK-3225,1 49737U 21115P   23265.92615809  .00002429  00000-0  17066-3 0  9998,2 49737  53.2160 223.8282 0001368  94.6197 265.4951 15.08834252 99851,6917.898,95.438,540.709,538.817,0.0
49737.0,STARLINK-3225,PAYLOAD,2023-09-23 01:24:26,15.08836127,0.0001319,53.2154,223.2333,95.7909,264.3233,0.00017864,2.556e-05,0.0,0 STARLINK-3225,1 49737U 21115P   23266.05863715  .00002556  00000-0  17864-3 0  9991,2 49737  53.2154 223.2333 0001319  95.7909 264.3233 15.08836127100985,6917.892,95.438,540.67,538.845,0.0
49737.0,STARLINK-3225,PAYLOAD,2023-09-23 06:10:35,15.0884171,0.0001348,53.2156,222.341,93.5318,266.5828,0.00023228,3.411e-05,0.0,0 STARLINK-3225,1 49737U 21115P   23266.25735501  .00003411  00000-0  23228-3 0  9996,2 49737  53.2156 222.3410 0001348  93.5318 266.5828 15.08841710 99902,6917.875,95.437,540.673,538.808,0.0
49737.0,STARLINK-3225,PAYLOAD,2023-09-24 04:25:58,15.08849283,0.0001319,53.2146,218.1759,118.7196,241.3929,8.397e-05,1.049e-05,0.0,0 STARLINK-3225,1 49737U 21115P   23267.18470829  .00001049  00000-0  83970-4 0  9994,2 49737  53.2146 218.1759 0001319 118.7196 241.3929 15.08849283101159,6917.852,95.437,540.629,538.805,0.0
49737.0,STARLINK-3225,PAYLOAD,2023-09-24 06:01:22,15.08823627,0.0001271,53.2148,217.8773,128.6065,231.5041,-0.00033371,-5.592e-05,0.0,0 STARLINK-3225,1 49737U 21115P   23267.25096051 -.00005592  00000-0 -33371-3 0  9991,2 49737  53.2148 217.8773 0001271 128.6065 231.5041 15.08823627101166,6917.93,95.439,540.675,538.916,0.0
49737.0,STARLINK-3225,PAYLOAD,2023-09-24 20:19:51,15.08837612,0.0001485,53.2143,215.2009,94.0437,266.0725,1.9532e-05,2.3e-07,0.0,0 STARLINK-3225,1 49737U 21115P   23267.84711974  .00000023  00000-0  19532-4 0  9990,2 49737  53.2143 215.2009 0001485  94.0437 266.0725 15.08837612100149,6917.888,95.438,540.78,538.725,0.0
49737.0,STARLINK-3225,PAYLOAD,2023-09-25 02:41:23,15.08847691,0.0001356,53.2152,214.012,92.4559,267.6588,0.00018285,2.624e-05,0.0,0 STARLINK-3225,1 49737U 21115P   23268.11207565  .00002624  00000-0  18285-3 0  9999,2 49737  53.2152 214.0120 0001356  92.4559 267.6588 15.08847691101293,6917.857,95.437,540.66,538.784,0.0
49737.0,STARLINK-3225,PAYLOAD,2023-09-25 05:52:09,15.08853256,0.0001144,53.2153,213.4161,107.0879,253.0239,0.00026832,3.987e-05,0.0,0 STARLINK-3225,1 49737U 21115P   23268.24455130  .00003987  00000-0  26832-3 0  9996,2 49737  53.2153 213.4161 0001144 107.0879 253.0239 15.08853256100201,6917.84,95.437,540.496,538.913,0.0
49737.0,STARLINK-3225,PAYLOAD,2023-09-25 13:49:05,15.08846284,0.0001309,53.2157,211.9299,104.886,255.2277,0.00018968,2.733e-05,0.0,0 STARLINK-3225,1 49737U 21115P   23268.57575491  .00002733  00000-0  18968-3 0  9994,2 49737  53.2157 211.9299 0001309 104.8860 255.2277 15.08846284100252,6917.861,95.437,540.632,538.821,0.0
49737.0,STARLINK-3225,PAYLOAD,2023-09-26 02:32:09,15.08865714,0.0001159,53.2162,209.5508,104.7751,255.337,0.00029964,4.487e-05,0.0,0 STARLINK-3225,1 49737U 21115P   23269.10566353  .00004487  00000-0  29964-3 0  9997,2 49737  53.2162 209.5508 0001159 104.7751 255.3370 15.08865714101441,6917.802,95.436,540.469,538.865,0.0
49737.0,STARLINK-3225,PAYLOAD,2023-09-26 20:01:24,15.08843459,0.0001499,53.215,206.2807,103.8657,256.2502,1.4072e-05,-6.4e-07,0.0,0 STARLINK-3225,1 49737U 21115P   23269.83431406 -.00000064  00000-0  14072-4 0  9990,2 49737  53.2150 206.2807 0001499 103.8657 256.2502 15.08843459101557,6917.87,95.437,540.772,538.698,0.0
49737.0,STARLINK-3225,PAYLOAD,2023-09-27 02:22:57,15.08841708,0.000137,53.2159,205.0898,111.2606,248.8533,-4.7568e-05,-1.045e-05,0.0,0 STARLINK-3225,1 49737U 21115P   23270.09927458 -.00001045  00000-0 -47568-4 0  9994,2 49737  53.2159 205.0898 0001370 111.2606 248.8533 15.08841708100485,6917.875,95.437,540.688,538.792,0.0
49737.0,STARLINK-3225,PAYLOAD,2023-09-28 02:13:45,15.0883207,0.0001484,53.2165,200.6298,117.9941,242.1201,-0.00021284,-3.673e-05,0.0,0 STARLINK-3225,1 49737U 21115P   23271.09289301 -.00003673  00000-0 -21284-3 0  9998,2 49737  53.2165 200.6298 0001484 117.9941 242.1201 15.08832070101749,6917.905,95.438,540.796,538.743,0.0
49737.0,STARLINK-3225,PAYLOAD,2023-09-28 19:42:59,15.08833076,0.0001274,53.2169,197.3602,110.6856,249.4272,0.00013396,1.844e-05,0.0,0 STARLINK-3225,1 49737U 21115P   23271.82152709  .00001844  00000-0  13396-3 0  9991,2 49737  53.2169 197.3602 0001274 110.6856 249.4272 15.08833076100740,6917.902,95.438,540.648,538.885,0.0
49737.0,STARLINK-3225,PAYLOAD,2023-09-29 05:15:18,15.08840776,0.0001858,53.217,195.5755,97.8674,262.2529,0.00015793,2.226e-05,0.0,0 STARLINK-3225,1 49737U 21115P   23272.21896311  .00002226  00000-0  15793-3 0  9997,2 49737  53.2170 195.5755 0001858  97.8674 262.2529 15.08840776101916,6917.878,95.438,541.028,538.458,0.0
49737.0,STARLINK-3225,PAYLOAD,2023-09-30 01:55:18,15.08846762,0.0001322,53.2172,191.7121,97.9263,262.188,0.00024643,3.637e-05,0.0,0 STARLINK-3225,1 49737U 21115P   23273.08007883  .00003637  00000-0  24643-3 0  9992,2 49737  53.2172 191.7121 0001322  97.9263 262.1880 15.08846762100935,6917.86,95.437,540.639,538.81,0.0
49737.0,STARLINK-3225,PAYLOAD,2023-09-30 11:27:38,15.08842602,0.0001336,53.2168,189.9278,79.3227,280.7916,8.9352e-05,1.135e-05,0.0,0 STARLINK-3225,1 49737U 21115P   23273.47752451  .00001135  00000-0  89352-4 0  9993,2 49737  53.2168 189.9278 0001336  79.3227 280.7916 15.08842602102107,6917.872,95.437,540.662,538.813,0.0
